{
    "links": {
        "self": "http://www.neowsapp.com/rest/v1/neo/3313734?api_key=iIulBulltgU6a56xZRHN4H3l9WmuAYTsLGpBGhQ2"
    },
    "id": "3313734",
    "neo_reference_id": "3313734",
    "name": "(2006 BB8)",
    "designation": "2006 BB8",
    "nasa_jpl_url": "http://ssd.jpl.nasa.gov/sbdb.cgi?sstr=3313734",
    "absolute_magnitude_h": 24.5,
    "estimated_diameter": {
        "kilometers": {
            "estimated_diameter_min": 0.0334622374,
            "estimated_diameter_max": 0.0748238376
        },
        "meters": {
            "estimated_diameter_min": 33.4622374455,
            "estimated_diameter_max": 74.8238376074
        },
        "miles": {
            "estimated_diameter_min": 0.0207924639,
            "estimated_diameter_max": 0.0464933628
        },
        "feet": {
            "estimated_diameter_min": 109.7842471007,
            "estimated_diameter_max": 245.4850393757
        }
    },
    "is_potentially_hazardous_asteroid": false,
    "close_approach_data": [
        {
            "close_approach_date": "2003-09-26",
            "close_approach_date_full": "2003-Sep-26 10:17",
            "epoch_date_close_approach": 1064571420000,
            "relative_velocity": {
                "kilometers_per_second": "19.3763211115",
                "kilometers_per_hour": "69754.7560013647",
                "miles_per_hour": "43342.8926942924"
            },
            "miss_distance": {
                "astronomical": "0.3791121768",
                "lunar": "147.4746367752",
                "kilometers": "56714374.140343416",
                "miles": "35240677.9588585008"
            },
            "orbiting_body": "Earth"
        },
        {
            "close_approach_date": "2006-01-12",
            "close_approach_date_full": "2006-Jan-12 07:45",
            "epoch_date_close_approach": 1137051900000,
            "relative_velocity": {
                "kilometers_per_second": "8.8821607501",
                "kilometers_per_hour": "31975.7787003687",
                "miles_per_hour": "19868.5053819041"
            },
            "miss_distance": {
                "astronomical": "0.0280800469",
                "lunar": "10.9231382441",
                "kilometers": "4200715.205740103",
                "miles": "2610203.3921073014"
            },
            "orbiting_body": "Earth"
        }
    ],
    "orbital_data": {
        "orbit_id": "9",
        "orbit_determination_date": "2017-04-06 09:09:19",
        "first_observation_date": "2006-01-23",
        "last_observation_date": "2006-02-06",
        "data_arc_in_days": 14,
        "observations_used": 24,
        "orbit_uncertainty": "8",
        "minimum_orbit_intersection": ".0150722",
        "jupiter_tisserand_invariant": "4.175",
        "epoch_osculation": "2453761.5",
        "eccentricity": ".440649472113244",
        "semi_major_axis": "1.6385304756825",
        "inclination": "7.334154718250356",
        "ascending_node_longitude": "121.6013713424206",
        "orbital_period": "766.090738375286",
        "perihelion_distance": ".9165128865315437",
        "perihelion_argument": "312.9509149967533",
        "aphelion_distance": "2.360548064833456",
        "perihelion_time": "2453717.915445248764",
        "mean_anomaly": "20.48117660803603",
        "mean_motion": ".4699182250440499",
        "equinox": "J2000",
        "orbit_class": {
            "orbit_class_type": "APO",
            "orbit_class_description": "Near-Earth asteroid orbits which cross the Earth’s orbit similar to that of 1862 Apollo",
            "orbit_class_range": "a (semi-major axis) > 1.0 AU; q (perihelion) < 1.017 AU"
        }
    },
    "is_sentry_object": false
}